NORAD_CAT_ID,OBJECT_NAME,OBJECT_TYPE,EPOCH,MEAN_MOTION,ECCENTRICITY,INCLINATION,RA_OF_ASC_NODE,ARG_OF_PERICENTER,MEAN_ANOMALY,BSTAR,MEAN_MOTION_DOT,MEAN_MOTION_DDOT,TLE_LINE0,TLE_LINE1,TLE_LINE2,SEMIMAJOR_AXIS,PERIOD,APOGEE,PERIGEE,DECAYED
53911.0,STARLINK-5048,PAYLOAD,2024-06-09 16:10:54,15.08825399,0.0003807,53.2118,298.4613,102.8684,257.2733,0.0002794,4.159e-05,0.0,0 STARLINK-5048,1 53911U 22119AB  24161.67424369  .00004159  00000-0  27940-3 0  9993,2 53911  53.2118 298.4613 0003807 102.8684 257.2733 15.08825399 95082,6917.925,95.438,542.424,537.156,0.0
53911.0,STARLINK-5048,PAYLOAD,2024-06-10 14:26:18,15.08834533,9.51e-05,53.219,294.3049,104.6675,255.4422,6.8517e-05,8.03e-06,0.0,0 STARLINK-5048,1 53911U 22119AB  24162.60160230  .00000803  00000-0  68517-4 0  9999,2 53911  53.2190 294.3049 0000951 104.6675 255.4422 15.08834533 95644,6917.897,95.438,540.42,539.104,0.0
53911.0,STARLINK-5048,PAYLOAD,2024-06-10 16:01:41,15.08837766,0.0001295,53.2169,294.0057,99.2424,260.8715,0.00017611,2.516e-05,0.0,0 STARLINK-5048,1 53911U 22119AB  24162.66783775  .00002516  00000-0  17611-3 0  9991,2 53911  53.2169 294.0057 0001295  99.2424 260.8715 15.08837766 95230,6917.887,95.438,540.648,538.856,0.0
53911.0,STARLINK-5048,PAYLOAD,2024-06-11 14:17:05,15.08836833,0.0001529,53.2196,289.8438,92.4973,267.6194,9.9469e-05,1.295e-05,0.0,0 STARLINK-5048,1 53911U 22119AB  24163.59520479  .00001295  00000-0  99469-4 0  9999,2 53911  53.2196 289.8438 0001529  92.4973 267.6194 15.08836833 95790,6917.89,95.438,540.813,538.697,0.0
53911.0,STARLINK-5048,PAYLOAD,2024-06-12 01:24:47,15.08840596,9.6e-05,53.217,287.761,90.1409,269.9693,2.6415e-05,1.33e-06,0.0,0 STARLINK-5048,1 53911U 22119AB  24164.05888368  .00000133  00000-0  26415-4 0  9996,2 53911  53.2170 287.7610 0000960  90.1409 269.9693 15.08840596 95440,6917.879,95.438,540.408,539.079,0.0
53911.0,STARLINK-5048,PAYLOAD,2024-06-12 12:32:30,15.088287,0.00013,53.2181,285.6802,94.2659,265.8482,1.3284e-05,-7.6e-07,0.0,0 STARLINK-5048,1 53911U 22119AB  24164.52257402 -.00000076  00000-0  13284-4 0  9994,2 53911  53.2181 285.6802 0001300  94.2659 265.8482 15.08828700 95515,6917.915,95.438,540.679,538.881,0.0
53911.0,STARLINK-5048,PAYLOAD,2024-06-12 15:43:16,15.08834713,0.0001156,53.2179,285.0846,93.7934,266.3191,7.3915e-06,-1.7e-06,0.0,0 STARLINK-5048,1 53911U 22119AB  24164.65505081 -.00000170  00000-0  73915-5 0  9990,2 53911  53.2179 285.0846 0001156  93.7934 266.3191 15.08834713 95955,6917.897,95.438,540.561,538.962,0.0
53911.0,STARLINK-5048,PAYLOAD,2024-06-13 12:23:16,15.08843655,0.0001226,53.2179,281.2206,85.649,274.4642,9.813e-05,1.274e-05,0.0,0 STARLINK-5048,1 53911U 22119AB  24165.51616268  .00001274  00000-0  98130-4 0  9996,2 53911  53.2179 281.2206 0001226  85.6490 274.4642 15.08843655 95662,6917.869,95.437,540.582,538.886,0.0
53911.0,STARLINK-5048,PAYLOAD,2024-06-13 13:58:39,15.08844197,0.0001111,53.2174,280.9233,86.9175,273.1944,0.00011209,1.497e-05,0.0,0 STARLINK-5048,1 53911U 22119AB  24165.58240166  .00001497  00000-0  11209-3 0  9991,2 53911  53.2174 280.9233 0001111  86.9175 273.1944 15.08844197 96091,6917.868,95.437,540.501,538.964,0.0
53911.0,STARLINK-5048,PAYLOAD,2024-06-14 13:49:26,15.08846036,0.0001045,53.2168,276.461,98.0741,262.037,0.00019098,2.753e-05,0.0,0 STARLINK-5048,1 53911U 22119AB  24166.57599549  .00002753  00000-0  19098-3 0  9993,2 53911  53.2168 276.4610 0001045  98.0741 262.0370 15.08846036 96243,6917.862,95.437,540.45,539.004,0.0
53911.0,STARLINK-5048,PAYLOAD,2024-06-15 13:40:13,15.08845294,0.0001176,53.2176,272.0015,88.0022,272.1105,-1.7476e-06,-3.16e-06,0.0,0 STARLINK-5048,1 53911U 22119AB  24167.56959778 -.00000316  00000-0 -17476-5 0  9992,2 53911  53.2176 272.0015 0001176  88.0022 272.1105 15.08845294 96398,6917.864,95.437,540.543,538.916,0.0
53911.0,STARLINK-5048,PAYLOAD,2024-06-15 16:50:59,15.08847438,0.0001239,53.2179,271.4062,90.0996,270.0138,1.3957e-05,-6.6e-07,0.0,0 STARLINK-5048,1 53911U 22119AB  24167.70207535 -.00000066  00000-0  13957-4 0  9995,2 53911  53.2179 271.4062 0001239  90.0996 270.0138 15.08847438 96417,6917.858,95.437,540.58,538.866,0.0
53911.0,STARLINK-5048,PAYLOAD,2024-06-16 13:31:00,15.08845125,0.000115,53.217,267.5391,89.1212,270.9912,-1.1582e-05,-4.72e-06,0.0,0 STARLINK-5048,1 53911U 22119AB  24168.56319633 -.00000472  00000-0 -11582-4 0  9997,2 53911  53.2170 267.5391 0001150  89.1212 270.9912 15.08845125 96545,6917.865,95.437,540.525,538.934,0.0
53911.0,STARLINK-5048,PAYLOAD,2024-06-16 16:41:46,15.08844415,0.0001191,53.2172,266.9444,90.0597,270.0531,1.5515e-05,-4.1e-07,0.0,0 STARLINK-5048,1 53911U 22119AB  24168.69567551 -.00000041  00000-0  15515-4 0  9996,2 53911  53.2172 266.9444 0001191  90.0597 270.0531 15.08844415 96562,6917.867,95.437,540.556,538.908,0.0
53911.0,STARLINK-5048,PAYLOAD,2024-06-17 13:21:48,15.08830214,0.0001207,53.2178,263.0815,86.1292,273.9838,1.326e-06,-2.67e-06,0.0,0 STARLINK-5048,1 53911U 22119AB  24169.55680824 -.00000267  00000-0  13260-5 0  9997,2 53911  53.2178 263.0815 0001207  86.1292 273.9838 15.08830214 96692,6917.91,95.438,540.61,538.94,0.0
53911.0,STARLINK-5048,PAYLOAD,2024-06-18 13:12:35,15.08839864,0.0001103,53.217,258.6223,92.7413,267.3705,4.8732e-05,4.88e-06,0.0,0 STARLINK-5048,1 53911U 22119AB  24170.55040569  .00000488  00000-0  48732-4 0  9990,2 53911  53.2170 258.6223 0001103  92.7413 267.3705 15.08839864 96421,6917.881,95.438,540.509,538.983,0.0
53911.0,STARLINK-5048,PAYLOAD,2024-06-19 13:03:22,15.08832551,0.0001158,53.2159,254.163,109.1955,250.9163,6.4921e-05,7.45e-06,0.0,0 STARLINK-5048,1 53911U 22119AB  24171.54401569  .00000745  00000-0  64921-4 0  9995,2 53911  53.2159 254.1630 0001158 109.1955 250.9163 15.08832551 96573,6917.903,95.438,540.569,538.967,0.0
53911.0,STARLINK-5048,PAYLOAD,2024-06-19 14:38:45,15.08835215,0.0001189,53.2166,253.8668,111.829,248.2829,0.00011463,1.537e-05,0.0,0 STARLINK-5048,1 53911U 22119AB  24171.61025304  .00001537  00000-0  11463-3 0  9994,2 53911  53.2166 253.8668 0001189 111.8290 248.2829 15.08835215 97002,6917.895,95.438,540.583,538.937,0.0
53911.0,STARLINK-5048,PAYLOAD,2024-06-20 14:29:32,15.08848354,0.0001314,53.2174,249.4019,101.4907,258.6233,7.7484e-05,9.46e-06,0.0,0 STARLINK-5048,1 53911U 22119AB  24172.60384772  .00000946  00000-0  77484-4 0  9990,2 53911  53.2174 249.4019 0001314 101.4907 258.6233 15.08848354 97150,6917.855,95.437,540.629,538.811,0.0
53911.0,STARLINK-5048,PAYLOAD,2024-06-21 04:48:01,15.08840236,0.0001232,53.2169,246.7244,99.1249,260.9883,4.5468e-05,4.36e-06,0.0,0 STARLINK-5048,1 53911U 22119AB  24173.20001443  .00000436  00000-0  45468-4 0  9999,2 53911  53.2169 246.7244 0001232  99.1249 260.9883 15.08840236 96826,6917.88,95.438,540.597,538.892,0.0
53911.0,STARLINK-5048,PAYLOAD,2024-06-21 11:09:33,15.08842251,0.0001313,53.2172,245.5357,92.5919,267.5223,6.0249e-05,6.71e-06,0.0,0 STARLINK-5048,1 53911U 22119AB  24173.46497279  .00000671  00000-0  60249-4 0  9998,2 53911  53.2172 245.5357 0001313  92.5919 267.5223 15.08842251 97284,6917.874,95.437,540.647,538.83,0.0
53911.0,STARLINK-5048,PAYLOAD,2024-06-22 11:00:21,15.08822927,0.0001162,53.2154,241.0744,94.2863,265.8262,5.4834e-05,5.85e-06,0.0,0 STARLINK-5048,1 53911U 22119AB  24174.45858350  .00000585  00000-0  54834-4 0  9996,2 53911  53.2154 241.0744 0001162  94.2863 265.8262 15.08822927 97017,6917.933,95.439,540.601,538.994,0.0
53911.0,STARLINK-5048,PAYLOAD,2024-06-22 14:11:07,15.08852908,0.0001038,53.216,240.4811,95.0075,265.1036,-0.00039023,-6.495e-05,0.0,0 STARLINK-5048,1 53911U 22119AB  24174.59106135 -.00006495  00000-0 -39023-3 0  9998,2 53911  53.2160 240.4811 0001038  95.0075 265.1036 15.08852908 97450,6917.841,95.437,540.424,538.988,0.0
53911.0,STARLINK-5048,PAYLOAD,2024-06-23 04:29:36,15.0882923,0.0001109,53.2159,237.8054,91.9706,268.1413,-2.0372e-05,-6.12e-06,0.0,0 STARLINK-5048,1 53911U 22119AB  24175.18722668 -.00000612  00000-0 -20372-4 0  9992,2 53911  53.2159 237.8054 0001109  91.9706 268.1413 15.08829230 97120,6917.913,95.438,540.546,539.011,0.0
53911.0,STARLINK-5048,PAYLOAD,2024-06-23 10:51:08,15.08836416,0.000128,53.2162,236.6162,87.1602,272.9537,2.4953e-05,1.09e-06,0.0,0 STARLINK-5048,1 53911U 22119AB  24175.45218243  .00000109  00000-0  24953-4 0  9999,2 53911  53.2162 236.6162 0001280  87.1602 272.9537 15.08836416 97161,6917.891,95.438,540.642,538.871,0.0
53911.0,STARLINK-5048,PAYLOAD,2024-06-23 14:01:54,15.08838061,0.0001253,53.2159,236.0209,84.2745,275.839,3.3117e-05,2.39e-06,0.0,0 STARLINK-5048,1 53911U 22119AB  24175.58466133  .00000239  00000-0  33117-4 0  9992,2 53911  53.2159 236.0209 0001253  84.2745 275.8390 15.08838061 97605,6917.886,95.438,540.618,538.885,0.0
53911.0,STARLINK-5048,PAYLOAD,2024-06-24 04:20:22,15.08842994,0.0001217,53.2157,233.3454,89.025,271.0882,0.00016956,2.412e-05,0.0,0 STARLINK-5048,1 53911U 22119AB  24176.18081283  .00002412  00000-0  16956-3 0  9994,2 53911  53.2157 233.3454 0001217  89.0250 271.0882 15.08842994 97276,6917.871,95.437,540.578,538.894,0.0
53911.0,STARLINK-5048,PAYLOAD,2024-06-24 10:41:54,15.08847952,0.0001297,53.2159,232.156,90.0104,270.1037,0.00020383,2.958e-05,0.0,0 STARLINK-5048,1 53911U 22119AB  24176.44576887  .00002958  00000-0  20383-3 0  9996,2 53911  53.2159 232.1560 0001297  90.0104 270.1037 15.08847952 97733,6917.856,95.437,540.618,538.824,0.0
53911.0,STARLINK-5048,PAYLOAD,2024-06-25 10:32:42,15.08838157,0.0001384,53.2172,227.6954,83.8027,276.3123,2.885e-05,1.71e-06,0.0,0 STARLINK-5048,1 53911U 22119AB  24177.43938221  .00000171  00000-0  28850-4 0  9993,2 53911  53.2172 227.6954 0001384  83.8027 276.3123 15.08838157 97466,6917.886,95.438,540.708,538.794,0.0
53911.0,STARLINK-5048,PAYLOAD,2024-06-26 10:23:28,15.08849905,0.0001582,53.2165,223.2283,99.34,260.7771,-3.3235e-05,-8.17e-06,0.0,0 STARLINK-5048,1 53911U 22119AB  24178.43297333 -.00000817  00000-0 -33235-4 0  9998,2 53911  53.2165 223.2283 0001582  99.3400 260.7771 15.08849905 97618,6917.85,95.437,540.81,538.621,0.0
